IRIDIUM 26              
1 24903U 97043A   25254.24284138  .00000315  00000+0  99315-4 0  9990
2 24903  86.3897  74.4417 0002210  94.8606 265.2843 14.37203964469105
IRIDIUM 22              
1 24907U 97043E   25254.24395216  .00000281  00000+0  89805-4 0  9999
2 24907  86.3900  78.0580 0002253  90.0260 270.1195 14.36010150469125
DUMMY MASS 1            
1 24925U 97048A   25254.21623790  .00000315  00000+0  32001-4 0  9996
2 24925  86.3293  95.5388 0006151 180.5474 179.5745 14.87049579517910
DUMMY MASS 2            
1 24926U 97048B   25253.99081315  .00000315  00000+0  32177-4 0  9996
2 24926  86.3296  97.2681 0006369 196.5335 163.5683 14.86801155517653
IRIDIUM 29              
1 24944U 97051A   25254.16637743  .00000302  00000+0  96144-4 0  9992
2 24944  86.3917 107.8331 0002126  81.6502 278.4936 14.36530720465617
IRIDIUM 33              
1 24946U 97051C   25253.96399154  .00000211  00000+0  67202-4 0  9994
2 24946  86.3832 107.1855 0008773 145.4784 214.6983 14.34937402465041
IRIDIUM 28              
1 24948U 97051E   25254.01594163  .00000261  00000+0  80839-4 0  9996
2 24948  86.3920 105.3612 0002297 100.5840 259.5617 14.37438505466172
IRIDIUM 36              
1 24967U 97056C   25254.10498946  .00000307  00000+0  95523-4 0  9991
2 24967  86.3992 136.9388 0002360  88.4935 271.6533 14.37667846464567
